EUTELSAT KONNECT        
1 45027U 20005B   25204.17267074  .00000040  00000+0  00000+0 0  9994
2 45027   0.0588  90.6604 0000986 125.2899 154.5494  1.00268099 21027
EUTELSAT QUANTUM        
1 49056U 21069B   25204.49153194  .00000116  00000+0  00000+0 0  9997
2 49056   0.0549 268.7208 0001606 237.7526  19.6484  1.00272868 14632
EUTELSAT KONNECT VHTS   
1 53765U 22110A   25204.17267074  .00000008  00000+0  00000+0 0  9995
2 53765   0.0535  94.1457 0002288  39.3062 232.5594  1.00271437  3529
EUTELSAT HOTBIRD 13F    
1 54048U 22134A   25204.19908588  .00000078  00000+0  00000+0 0  9997
2 54048   0.0703 279.6751 0001936  76.3125  29.8665  1.00271681 10073
EUTELSAT HOTBIRD 13G    
1 54225U 22146A   25204.19908588  .00000078  00000+0  00000+0 0  9997
2 54225   0.0596 242.8834 0001990 304.0041 198.9244  1.00270206  4168
EUTELSAT 10B            
1 54259U 22157A   25204.16711285  .00000059  00000+0  00000+0 0  9998
2 54259   0.0487  92.8210 0001551  53.4348 225.0018  1.00271094  9716
EUTELSAT 36D            
1 59346U 24059A   25204.48919193  .00000146  00000+0  00000+0 0  9993
2 59346   0.0255  64.9725 0000168 172.7965 275.6900  1.00269900  4859
